{
  "type": "FeatureCollection",
  "features": [
    {
      "type": "Feature",
      "properties": {
        "norad_id": 44793,
        "name": "BEIDOU-3 M22 (C44)",
        "group": "beidou",
        "lat": 41.916050365233914,
        "lon": 86.20410376820008,
        "alt_km": 21526.074637721777,
        "timestamp": "2025-12-02T17:49:12.293363+00:00",
        "meta_object_name": "BEIDOU-3 M22 (C44)",
        "meta_object_id": "2019-078A",
        "meta_epoch": "2025-12-02T00:28:58.554624",
        "meta_mean_motion": 1.86231817,
        "meta_eccentricity": 0.00056333,
        "meta_inclination": 54.1183,
        "meta_ra_of_asc_node": 306.7625,
        "meta_arg_of_pericenter": 22.616,
        "meta_mean_anomaly": 337.398,
        "meta_ephemeris_type": 0,
        "meta_classification_type": "U",
        "meta_norad_cat_id": 44793,
        "meta_element_set_no": 999,
        "meta_rev_at_epoch": 4097,
        "meta_bstar": 0,
        "meta_mean_motion_dot": -6.1e-07,
        "meta_mean_motion_ddot": 0,
        "tle_line1": "1 44793U 19078A   25336.02012216 -.00000061  00000+0  00000+0 0  9991",
        "tle_line2": "2 44793  54.1183 306.7625 0005633  22.6160 337.3980  1.86231817 40974"
      },
      "geometry": {
        "type": "Point",
        "coordinates": [
          86.20410376820008,
          41.916050365233914
        ]
      }
    },
    {
      "type": "Feature",
      "properties": {
        "norad_id": 44794,
        "name": "BEIDOU-3 M21 (C43)",
        "group": "beidou",
        "lat": 25.570629646288968,
        "lon": -33.039291725621204,
        "alt_km": 21515.292336038867,
        "timestamp": "2025-12-02T17:49:12.293374+00:00",
        "meta_object_name": "BEIDOU-3 M21 (C43)",
        "meta_object_id": "2019-078B",
        "meta_epoch": "2025-12-01T02:00:26.030304",
        "meta_mean_motion": 1.86227539,
        "meta_eccentricity": 0.00038706,
        "meta_inclination": 54.0922,
        "meta_ra_of_asc_node": 306.7607,
        "meta_arg_of_pericenter": 10.0971,
        "meta_mean_anomaly": 349.9036,
        "meta_ephemeris_type": 0,
        "meta_classification_type": "U",
        "meta_norad_cat_id": 44794,
        "meta_element_set_no": 999,
        "meta_rev_at_epoch": 4096,
        "meta_bstar": 0,
        "meta_mean_motion_dot": -5.7e-07,
        "meta_mean_motion_ddot": 0,
        "tle_line1": "1 44794U 19078B   25335.08363461 -.00000057  00000+0  00000+0 0  9993",
        "tle_line2": "2 44794  54.0922 306.7607 0003870  10.0971 349.9036  1.86227539 40963"
      },
      "geometry": {
        "type": "Point",
        "coordinates": [
          -33.039291725621204,
          25.570629646288968
        ]
      }
    },
    {
      "type": "Feature",
      "properties": {
        "norad_id": 44864,
        "name": "BEIDOU-3 M19 (C41)",
        "group": "beidou",
        "lat": -38.04096993209894,
        "lon": -79.39278691242042,
        "alt_km": 21506.133035153798,
        "timestamp": "2025-12-02T17:49:12.293385+00:00",
        "meta_object_name": "BEIDOU-3 M19 (C41)",
        "meta_object_id": "2019-090A",
        "meta_epoch": "2025-12-01T20:54:26.017344",
        "meta_mean_motion": 1.86231094,
        "meta_eccentricity": 0.00175122,
        "meta_inclination": 56.3837,
        "meta_ra_of_asc_node": 69.3227,
        "meta_arg_of_pericenter": 284.7988,
        "meta_mean_anomaly": 78.8343,
        "meta_ephemeris_type": 0,
        "meta_classification_type": "U",
        "meta_norad_cat_id": 44864,
        "meta_element_set_no": 999,
        "meta_rev_at_epoch": 4056,
        "meta_bstar": 0,
        "meta_mean_motion_dot": -4.4e-07,
        "meta_mean_motion_ddot": 0,
        "tle_line1": "1 44864U 19090A   25335.87113446 -.00000044  00000+0  00000+0 0  9994",
        "tle_line2": "2 44864  56.3837  69.3227 0017512 284.7988  78.8343  1.86231094 40563"
      },
      "geometry": {
        "type": "Point",
        "coordinates": [
          -79.39278691242042,
          -38.04096993209894
        ]
      }
    },
    {
      "type": "Feature",
      "properties": {
        "norad_id": 44865,
        "name": "BEIDOU-3 M20 (C42)",
        "group": "beidou",
        "lat": -34.23534422997322,
        "lon": 42.455611298045326,
        "alt_km": 21493.905688727973,
        "timestamp": "2025-12-02T17:49:12.293396+00:00",
        "meta_object_name": "BEIDOU-3 M20 (C42)",
        "meta_object_id": "2019-090B",
        "meta_epoch": "2025-12-02T06:29:14.465184",
        "meta_mean_motion": 1.86231065,
        "meta_eccentricity": 0.0014652,
        "meta_inclination": 56.3856,
        "meta_ra_of_asc_node": 69.3436,
        "meta_arg_of_pericenter": 297.6266,
        "meta_mean_anomaly": 63.245,
        "meta_ephemeris_type": 0,
        "meta_classification_type": "U",
        "meta_norad_cat_id": 44865,
        "meta_element_set_no": 999,
        "meta_rev_at_epoch": 4055,
        "meta_bstar": 0,
        "meta_mean_motion_dot": -4.6e-07,
        "meta_mean_motion_ddot": 0,
        "tle_line1": "1 44865U 19090B   25336.27030631 -.00000046  00000+0  00000+0 0  9996",
        "tle_line2": "2 44865  56.3856  69.3436 0014652 297.6266  63.2450  1.86231065 40555"
      },
      "geometry": {
        "type": "Point",
        "coordinates": [
          42.455611298045326,
          -34.23534422997322
        ]
      }
    },
    {
      "type": "Feature",
      "properties": {
        "norad_id": 45344,
        "name": "BEIDOU-3 G2 (C60)",
        "group": "beidou",
        "lat": 0.828362252242455,
        "lon": 59.202845380846995,
        "alt_km": 35793.52482887524,
        "timestamp": "2025-12-02T17:49:12.293429+00:00",
        "meta_object_name": "BEIDOU-3 G2 (C60)",
        "meta_object_id": "2020-017A",
        "meta_epoch": "2025-12-02T09:01:44.857632",
        "meta_mean_motion": 1.00270444,
        "meta_eccentricity": 0.0004538,
        "meta_inclination": 2.9802,
        "meta_ra_of_asc_node": 43.5434,
        "meta_arg_of_pericenter": 263.8442,
        "meta_mean_anomaly": 339.5888,
        "meta_ephemeris_type": 0,
        "meta_classification_type": "U",
        "meta_norad_cat_id": 45344,
        "meta_element_set_no": 999,
        "meta_rev_at_epoch": 2128,
        "meta_bstar": 0,
        "meta_mean_motion_dot": -1.22e-06,
        "meta_mean_motion_ddot": 0,
        "tle_line1": "1 45344U 20017A   25336.37621363 -.00000122  00000+0  00000+0 0  9994",
        "tle_line2": "2 45344   2.9802  43.5434 0004538 263.8442 339.5888  1.00270444 21284"
      },
      "geometry": {
        "type": "Point",
        "coordinates": [
          59.202845380846995,
          0.828362252242455
        ]
      }
    },
    {
      "type": "Feature",
      "properties": {
        "norad_id": 45807,
        "name": "BEIDOU-3 G3 (C61)",
        "group": "beidou",
        "lat": 0.7917065058677888,
        "lon": 89.68126697823838,
        "alt_km": 35782.56441170552,
        "timestamp": "2025-12-02T17:49:12.293443+00:00",
        "meta_object_name": "BEIDOU-3 G3 (C61)",
        "meta_object_id": "2020-040A",
        "meta_epoch": "2025-12-02T03:49:07.508352",
        "meta_mean_motion": 1.00267316,
        "meta_eccentricity": 0.00049793,
        "meta_inclination": 1.9634,
        "meta_ra_of_asc_node": 66.509,
        "meta_arg_of_pericenter": 305.9594,
        "meta_mean_anomaly": 226.6097,
        "meta_ephemeris_type": 0,
        "meta_classification_type": "U",
        "meta_norad_cat_id": 45807,
        "meta_element_set_no": 999,
        "meta_rev_at_epoch": 2009,
        "meta_bstar": 0,
        "meta_mean_motion_dot": -3.33e-06,
        "meta_mean_motion_ddot": 0,
        "tle_line1": "1 45807U 20040A   25336.15911468 -.00000333  00000+0  00000+0 0  9992",
        "tle_line2": "2 45807   1.9634  66.5090 0004979 305.9594 226.6097  1.00267316 20098"
      },
      "geometry": {
        "type": "Point",
        "coordinates": [
          89.68126697823838,
          0.7917065058677888
        ]
      }
    },
    {
      "type": "Feature",
      "properties": {
        "norad_id": 56564,
        "name": "BEIDOU-3 G4 (C62)",
        "group": "beidou",
        "lat": -0.26327006847328527,
        "lon": 139.1589788747203,
        "alt_km": 35774.87498051792,
        "timestamp": "2025-12-02T17:49:12.293455+00:00",
        "meta_object_name": "BEIDOU-3 G4 (C62)",
        "meta_object_id": "2023-066A",
        "meta_epoch": "2025-12-02T10:54:38.635776",
        "meta_mean_motion": 1.00271041,
        "meta_eccentricity": 0.0003393,
        "meta_inclination": 0.8391,
        "meta_ra_of_asc_node": 301.148,
        "meta_arg_of_pericenter": 234.296,
        "meta_mean_anomaly": 219.8462,
        "meta_ephemeris_type": 0,
        "meta_classification_type": "U",
        "meta_norad_cat_id": 56564,
        "meta_element_set_no": 999,
        "meta_rev_at_epoch": 942,
        "meta_bstar": 0,
        "meta_mean_motion_dot": -9e-07,
        "meta_mean_motion_ddot": 0,
        "tle_line1": "1 56564U 23066A   25336.45461384 -.00000090  00000+0  00000+0 0  9995",
        "tle_line2": "2 56564   0.8391 301.1480 0003393 234.2960 219.8462  1.00271041  9423"
      },
      "geometry": {
        "type": "Point",
        "coordinates": [
          139.1589788747203,
          -0.26327006847328527
        ]
      }
    }
  ]
}